STARLINK-5605           
1 55411U 23014W   26038.33343497 -.00001306  00000+0 -10164-3 0  9997
2 55411  70.0008 141.1892 0003169 267.6926  92.3871 14.98338042167507
STARLINK-5060           
1 55413U 23014Y   26037.75784408  .00001389  00000+0  12421-3 0  9992
2 55413  70.0012 162.2554 0003062 270.0043  90.0765 14.98313191166934
STARLINK-5620           
1 55414U 23014Z   26038.30861230  .00001966  00000+0  17249-3 0  9998
2 55414  70.0033 160.9681 0004098 275.0068  85.0623 14.98331507167014
STARLINK-5624           
1 55416U 23014AB  26038.31696032 -.00000836  00000+0 -62280-4 0  9990
2 55416  70.0002 160.9979 0003572 268.6854  91.3896 14.98336684167012
STARLINK-5030           
1 55418U 23014AD  26037.72447577  .00000708  00000+0  67103-4 0  9999
2 55418  70.0011 162.5415 0003016 272.4019  87.6795 14.98329313166922
STARLINK-5629           
1 55419U 23014AE  26037.77871021  .00000749  00000+0  70525-4 0  9997
2 55419  70.0011 162.3288 0002975 275.6441  84.4379 14.98329396166931
STARLINK-5604           
1 55420U 23014AF  26038.28308845  .00003709  00000+0  31823-3 0  9991
2 55420  70.0005 121.1488 0002964 267.4130  92.6690 14.98363980167994
STARLINK-5598           
1 55421U 23014AG  26038.32115850 -.00002317  00000+0 -18655-3 0  9993
2 55421  69.9991 161.0101 0003984 268.0092  92.0611 14.98311502167011
STARLINK-5006           
1 55422U 23014AH  26038.30026229  .00000033  00000+0  10523-4 0  9991
2 55422  70.0012 160.9337 0003006 274.0891  85.9925 14.98334441167013
STARLINK-5068           
1 55423U 23014AJ  26037.73699599  .00001807  00000+0  15927-3 0  9996
2 55423  70.0012 162.5843 0002963 267.8109  92.2711 14.98320819166924
STARLINK-5615           
1 55425U 23014AL  26038.32948506 -.00000800  00000+0 -59231-4 0  9990
2 55425  70.0005 161.0427 0003111 267.6823  92.3980 14.98332370167012
STARLINK-5638           
1 55426U 23014AM  26038.27942104 -.00000565  00000+0 -39552-4 0  9995
2 55426  70.0007 161.2684 0002973 271.2402  88.8417 14.98332634167008
STARLINK-5064           
1 55428U 23014AP  26037.75369503 -.00000408  00000+0 -26383-4 0  9999
2 55428  70.0009 162.6448 0002844 267.9110  92.1723 14.98324017166924
STARLINK-5645           
1 55429U 23014AQ  26037.74117447  .00000044  00000+0  11462-4 0  9993
2 55429  70.0015 162.5993 0002584 265.4826  94.6038 14.98319564166921
STARLINK-5642           
1 55430U 23014AR  26037.79980645 -.00000652  00000+0 -46858-4 0  9992
2 55430  70.0007 182.2611 0002800 270.3576  89.7263 14.98322831166441
STARLINK-5643           
1 55431U 23014AS  26038.28359789  .00000170  00000+0  22054-4 0  9992
2 55431  70.0023 161.2809 0002564 282.7536  77.3337 14.98332827167000
