[{"OBJECT_NAME":"STARLINK-5605","OBJECT_ID":"2023-014W","EPOCH":"2026-02-07T08:00:08.781408","MEAN_MOTION":14.98338042,"ECCENTRICITY":0.00031693,"INCLINATION":70.0008,"RA_OF_ASC_NODE":141.1892,"ARG_OF_PERICENTER":267.6926,"MEAN_ANOMALY":92.3871,"EPHEMERIS_TYPE":0,"CLASSIFICATION_TYPE":"U","NORAD_CAT_ID":55411,"ELEMENT_SET_NO":999,"REV_AT_EPOCH":16750,"BSTAR":-0.00010163931,"MEAN_MOTION_DOT":-1.306e-5,"MEAN_MOTION_DDOT":0},{"OBJECT_NAME":"STARLINK-5060","OBJECT_ID":"2023-014Y","EPOCH":"2026-02-06T18:11:17.728512","MEAN_MOTION":14.98313191,"ECCENTRICITY":0.00030622,"INCLINATION":70.0012,"RA_OF_ASC_NODE":162.2554,"ARG_OF_PERICENTER":270.0043,"MEAN_ANOMALY":90.0765,"EPHEMERIS_TYPE":0,"CLASSIFICATION_TYPE":"U","NORAD_CAT_ID":55413,"ELEMENT_SET_NO":999,"REV_AT_EPOCH":16693,"BSTAR":0.00012420557,"MEAN_MOTION_DOT":1.389e-5,"MEAN_MOTION_DDOT":0},{"OBJECT_NAME":"STARLINK-5620","OBJECT_ID":"2023-014Z","EPOCH":"2026-02-07T07:24:24.102720","MEAN_MOTION":14.98331507,"ECCENTRICITY":0.00040982,"INCLINATION":70.0033,"RA_OF_ASC_NODE":160.9681,"ARG_OF_PERICENTER":275.0068,"MEAN_ANOMALY":85.0623,"EPHEMERIS_TYPE":0,"CLASSIFICATION_TYPE":"U","NORAD_CAT_ID":55414,"ELEMENT_SET_NO":999,"REV_AT_EPOCH":16701,"BSTAR":0.00017248583,"MEAN_MOTION_DOT":1.966e-5,"MEAN_MOTION_DDOT":0},{"OBJECT_NAME":"STARLINK-5624","OBJECT_ID":"2023-014AB","EPOCH":"2026-02-07T07:36:25.371648","MEAN_MOTION":14.98336684,"ECCENTRICITY":0.0003572,"INCLINATION":70.0002,"RA_OF_ASC_NODE":160.9979,"ARG_OF_PERICENTER":268.6854,"MEAN_ANOMALY":91.3896,"EPHEMERIS_TYPE":0,"CLASSIFICATION_TYPE":"U","NORAD_CAT_ID":55416,"ELEMENT_SET_NO":999,"REV_AT_EPOCH":16701,"BSTAR":-6.2280429e-5,"MEAN_MOTION_DOT":-8.36e-6,"MEAN_MOTION_DDOT":0},{"OBJECT_NAME":"STARLINK-5030","OBJECT_ID":"2023-014AD","EPOCH":"2026-02-06T17:23:14.706528","MEAN_MOTION":14.98329313,"ECCENTRICITY":0.0003016,"INCLINATION":70.0011,"RA_OF_ASC_NODE":162.5415,"ARG_OF_PERICENTER":272.4019,"MEAN_ANOMALY":87.6795,"EPHEMERIS_TYPE":0,"CLASSIFICATION_TYPE":"U","NORAD_CAT_ID":55418,"ELEMENT_SET_NO":999,"REV_AT_EPOCH":16692,"BSTAR":6.7102991e-5,"MEAN_MOTION_DOT":7.08e-6,"MEAN_MOTION_DDOT":0},{"OBJECT_NAME":"STARLINK-5629","OBJECT_ID":"2023-014AE","EPOCH":"2026-02-06T18:41:20.562144","MEAN_MOTION":14.98329396,"ECCENTRICITY":0.00029754,"INCLINATION":70.0011,"RA_OF_ASC_NODE":162.3288,"ARG_OF_PERICENTER":275.6441,"MEAN_ANOMALY":84.4379,"EPHEMERIS_TYPE":0,"CLASSIFICATION_TYPE":"U","NORAD_CAT_ID":55419,"ELEMENT_SET_NO":999,"REV_AT_EPOCH":16693,"BSTAR":7.052475e-5,"MEAN_MOTION_DOT":7.49e-6,"MEAN_MOTION_DDOT":0},{"OBJECT_NAME":"STARLINK-5604","OBJECT_ID":"2023-014AF","EPOCH":"2026-02-07T06:47:38.842080","MEAN_MOTION":14.9836398,"ECCENTRICITY":0.00029641,"INCLINATION":70.0005,"RA_OF_ASC_NODE":121.1488,"ARG_OF_PERICENTER":267.413,"MEAN_ANOMALY":92.669,"EPHEMERIS_TYPE":0,"CLASSIFICATION_TYPE":"U","NORAD_CAT_ID":55420,"ELEMENT_SET_NO":999,"REV_AT_EPOCH":16799,"BSTAR":0.00031822883,"MEAN_MOTION_DOT":3.709e-5,"MEAN_MOTION_DDOT":0},{"OBJECT_NAME":"STARLINK-5598","OBJECT_ID":"2023-014AG","EPOCH":"2026-02-07T07:42:28.094400","MEAN_MOTION":14.98311502,"ECCENTRICITY":0.00039843,"INCLINATION":69.9991,"RA_OF_ASC_NODE":161.0101,"ARG_OF_PERICENTER":268.0092,"MEAN_ANOMALY":92.0611,"EPHEMERIS_TYPE":0,"CLASSIFICATION_TYPE":"U","NORAD_CAT_ID":55421,"ELEMENT_SET_NO":999,"REV_AT_EPOCH":16701,"BSTAR":-0.00018654927,"MEAN_MOTION_DOT":-2.317e-5,"MEAN_MOTION_DDOT":0},{"OBJECT_NAME":"STARLINK-5006","OBJECT_ID":"2023-014AH","EPOCH":"2026-02-07T07:12:22.661856","MEAN_MOTION":14.98334441,"ECCENTRICITY":0.00030063,"INCLINATION":70.0012,"RA_OF_ASC_NODE":160.9337,"ARG_OF_PERICENTER":274.0891,"MEAN_ANOMALY":85.9925,"EPHEMERIS_TYPE":0,"CLASSIFICATION_TYPE":"U","NORAD_CAT_ID":55422,"ELEMENT_SET_NO":999,"REV_AT_EPOCH":16701,"BSTAR":1.0523121e-5,"MEAN_MOTION_DOT":3.3e-7,"MEAN_MOTION_DDOT":0},{"OBJECT_NAME":"STARLINK-5068","OBJECT_ID":"2023-014AJ","EPOCH":"2026-02-06T17:41:16.453536","MEAN_MOTION":14.98320819,"ECCENTRICITY":0.00029636,"INCLINATION":70.0012,"RA_OF_ASC_NODE":162.5843,"ARG_OF_PERICENTER":267.8109,"MEAN_ANOMALY":92.2711,"EPHEMERIS_TYPE":0,"CLASSIFICATION_TYPE":"U","NORAD_CAT_ID":55423,"ELEMENT_SET_NO":999,"REV_AT_EPOCH":16692,"BSTAR":0.00015926729,"MEAN_MOTION_DOT":1.807e-5,"MEAN_MOTION_DDOT":0},{"OBJECT_NAME":"STARLINK-5615","OBJECT_ID":"2023-014AL","EPOCH":"2026-02-07T07:54:27.509184","MEAN_MOTION":14.9833237,"ECCENTRICITY":0.00031117,"INCLINATION":70.0005,"RA_OF_ASC_NODE":161.0427,"ARG_OF_PERICENTER":267.6823,"MEAN_ANOMALY":92.398,"EPHEMERIS_TYPE":0,"CLASSIFICATION_TYPE":"U","NORAD_CAT_ID":55425,"ELEMENT_SET_NO":999,"REV_AT_EPOCH":16701,"BSTAR":-5.9231434e-5,"MEAN_MOTION_DOT":-8.0e-6,"MEAN_MOTION_DDOT":0},{"OBJECT_NAME":"STARLINK-5638","OBJECT_ID":"2023-014AM","EPOCH":"2026-02-07T06:42:21.977856","MEAN_MOTION":14.98332634,"ECCENTRICITY":0.00029737,"INCLINATION":70.0007,"RA_OF_ASC_NODE":161.2684,"ARG_OF_PERICENTER":271.2402,"MEAN_ANOMALY":88.8417,"EPHEMERIS_TYPE":0,"CLASSIFICATION_TYPE":"U","NORAD_CAT_ID":55426,"ELEMENT_SET_NO":999,"REV_AT_EPOCH":16700,"BSTAR":-3.9552037e-5,"MEAN_MOTION_DOT":-5.65e-6,"MEAN_MOTION_DDOT":0},{"OBJECT_NAME":"STARLINK-5064","OBJECT_ID":"2023-014AP","EPOCH":"2026-02-06T18:05:19.250592","MEAN_MOTION":14.98324017,"ECCENTRICITY":0.00028447,"INCLINATION":70.0009,"RA_OF_ASC_NODE":162.6448,"ARG_OF_PERICENTER":267.911,"MEAN_ANOMALY":92.1723,"EPHEMERIS_TYPE":0,"CLASSIFICATION_TYPE":"U","NORAD_CAT_ID":55428,"ELEMENT_SET_NO":999,"REV_AT_EPOCH":16692,"BSTAR":-2.6382571e-5,"MEAN_MOTION_DOT":-4.08e-6,"MEAN_MOTION_DDOT":0},{"OBJECT_NAME":"STARLINK-5645","OBJECT_ID":"2023-014AQ","EPOCH":"2026-02-06T17:47:17.474208","MEAN_MOTION":14.98319564,"ECCENTRICITY":0.00025846,"INCLINATION":70.0015,"RA_OF_ASC_NODE":162.5993,"ARG_OF_PERICENTER":265.4826,"MEAN_ANOMALY":94.6038,"EPHEMERIS_TYPE":0,"CLASSIFICATION_TYPE":"U","NORAD_CAT_ID":55429,"ELEMENT_SET_NO":999,"REV_AT_EPOCH":16692,"BSTAR":1.1461915e-5,"MEAN_MOTION_DOT":4.4e-7,"MEAN_MOTION_DDOT":0},{"OBJECT_NAME":"STARLINK-5642","OBJECT_ID":"2023-014AR","EPOCH":"2026-02-06T19:11:43.277280","MEAN_MOTION":14.98322831,"ECCENTRICITY":0.00028003,"INCLINATION":70.0007,"RA_OF_ASC_NODE":182.2611,"ARG_OF_PERICENTER":270.3576,"MEAN_ANOMALY":89.7263,"EPHEMERIS_TYPE":0,"CLASSIFICATION_TYPE":"U","NORAD_CAT_ID":55430,"ELEMENT_SET_NO":999,"REV_AT_EPOCH":16644,"BSTAR":-4.685805e-5,"MEAN_MOTION_DOT":-6.52e-6,"MEAN_MOTION_DDOT":0},{"OBJECT_NAME":"STARLINK-5643","OBJECT_ID":"2023-014AS","EPOCH":"2026-02-07T06:48:22.857696","MEAN_MOTION":14.98332827,"ECCENTRICITY":0.00025642,"INCLINATION":70.0023,"RA_OF_ASC_NODE":161.2809,"ARG_OF_PERICENTER":282.7536,"MEAN_ANOMALY":77.3337,"EPHEMERIS_TYPE":0,"CLASSIFICATION_TYPE":"U","NORAD_CAT_ID":55431,"ELEMENT_SET_NO":999,"REV_AT_EPOCH":16700,"BSTAR":2.205381e-5,"MEAN_MOTION_DOT":1.7e-6,"MEAN_MOTION_DDOT":0}]
